NORAD_CAT_ID,OBJECT_NAME,OBJECT_TYPE,EPOCH,MEAN_MOTION,ECCENTRICITY,INCLINATION,RA_OF_ASC_NODE,ARG_OF_PERICENTER,MEAN_ANOMALY,BSTAR,MEAN_MOTION_DOT,MEAN_MOTION_DDOT,TLE_LINE0,TLE_LINE1,TLE_LINE2,SEMIMAJOR_AXIS,PERIOD,APOGEE,PERIGEE,DECAYED
53711.0,STARLINK-4627,PAYLOAD,2022-09-12 14:00:01,15.79056754,9.32e-05,53.2172,236.1026,89.5834,256.1737,-0.0074148,-0.01196916,0.0,0 STARLINK-4627,1 53711U 22107M   22255.58334491 -.01196916  00000-0 -74148-2 0  9993,2 53711  53.2172 236.1026 0000932  89.5834 256.1737 15.79056754  1304,6711.249,91.194,333.7390000000001,332.48800000000006,0.0
53711.0,STARLINK-4627,PAYLOAD,2022-09-13 06:00:00,15.77320341,0.0001238,53.2173,232.7797,73.5966,101.9796,-0.0080084,-0.01195148,0.0,0 STARLINK-4627,1 53711U 22107M   22256.25001157 -.01195148  00000-0 -80084-2 0  9990,2 53711  53.2173 232.7797 0001238  73.5966 101.9796 15.77320341  1408,6716.1730000000025,91.294,338.87,337.207,0.0
53711.0,STARLINK-4627,PAYLOAD,2022-09-13 14:00:01,15.76453751,0.0001065,53.2174,231.1203,81.1809,187.741,-0.0083433,-0.01197318,0.0,0 STARLINK-4627,1 53711U 22107M   22256.58334491 -.01197318  00000-0 -83433-2 0  9998,2 53711  53.2174 231.1203 0001065  81.1809 187.7410 15.76453751  1308,6718.635,91.344,341.215,339.784,0.0
53711.0,STARLINK-4627,PAYLOAD,2022-09-13 20:00:01,15.75799985,0.0001107999999999,53.2174,229.8765,85.5482,162.6999,-0.0085506,-0.01192518,0.0,0 STARLINK-4627,1 53711U 22107M   22256.83334491 -.01192518  00000-0 -85506-2 0  9996,2 53711  53.2174 229.8765 0001108  85.5482 162.6999 15.75799985  1493,6720.493,91.382,343.102,341.61300000000006,0.0
53711.0,STARLINK-4627,PAYLOAD,2022-09-13 22:00:00,15.75581981,9.84e-05,53.2177,229.4627,83.5116,277.7151,-0.0086146,-0.01190131,0.0,0 STARLINK-4627,1 53711U 22107M   22256.91667824 -.01190131  00000-0 -86146-2 0  9994,2 53711  53.2177 229.4627 0000984  83.5116 277.7151 15.75581981  1316,6721.113,91.395,343.639,342.316,0.0
53711.0,STARLINK-4627,PAYLOAD,2022-09-14 14:00:01,15.73707265,0.0001277,53.2173,226.1574,97.1874,85.5301,-0.0045823999999999,-0.00612227,0.0,0 STARLINK-4627,1 53711U 22107M   22257.58334491 -.00612227  00000-0 -45824-2 0  9991,2 53711  53.2173 226.1574 0001277  97.1874  85.5301 15.73707265  1309,6726.449000000001,91.504,349.173,347.455,0.0
53711.0,STARLINK-4627,PAYLOAD,2022-09-14 20:00:01,15.73230181,0.0001153,53.2172,224.9184,91.0716,68.6753,-0.00031738,-0.00044981,0.0,0 STARLINK-4627,1 53711U 22107M   22257.83334491 -.00044981  00000-0 -31738-3 0  9995,2 53711  53.2172 224.9184 0001153  91.0716  68.6753 15.73230181  1651,6727.809,91.531,350.45,348.898,0.0
53711.0,STARLINK-4627,PAYLOAD,2022-09-14 22:00:00,15.73307192,0.000125,53.2129,224.5064,109.1023,162.8287,-0.00055956,-0.00078778,0.0,0 STARLINK-4627,1 53711U 22107M   22257.91667824 -.00078778  00000-0 -55956-3 0  9992,2 53711  53.2129 224.5064 0001250 109.1023 162.8287 15.73307192  1304,6727.59,91.527,350.296,348.61400000000015,0.0
53711.0,STARLINK-4627,PAYLOAD,2022-09-15 04:00:00,15.73234847,0.000109,53.213,223.2709,97.5143,151.1987,0.00012666,0.00017219,0.0,0 STARLINK-4627,1 53711U 22107M   22258.16667824  .00017219  00000-0  12666-3 0  9992,2 53711  53.2130 223.2709 0001090  97.5143 151.1987 15.73234847  1701,6727.795999999999,91.531,350.394,348.927,0.0
53711.0,STARLINK-4627,PAYLOAD,2022-09-15 14:00:01,15.73243081,0.0001019,53.2141,221.2078,102.2043,347.7355,-1.7675999999999998e-05,-3.104e-05,0.0,0 STARLINK-4627,1 53711U 22107M   22258.58334491 -.00003104  00000-0 -17676-4 0  9996,2 53711  53.2141 221.2078 0001019 102.2043 347.7355 15.73243081  1302,6727.772,91.531,350.3230000000001,348.952,0.0
53711.0,STARLINK-4627,PAYLOAD,2022-09-15 22:00:00,15.73264755,0.0001122,53.2147,219.5575,110.7537,68.158,-0.00085363,-0.00119067,0.0,0 STARLINK-4627,1 53711U 22107M   22258.91667824 -.00119067  00000-0 -85363-3 0  9995,2 53711  53.2147 219.5575 0001122 110.7537  68.1580 15.73264755  1302,6727.7109999999975,91.529,350.33,348.821,0.0
53711.0,STARLINK-4627,PAYLOAD,2022-09-16 00:00:00,15.7324235,0.0001079,53.2148,219.1457,108.6428,182.5184,-0.00082992,-0.00115711,0.0,0 STARLINK-4627,1 53711U 22107M   22259.00001157 -.00115711  00000-0 -82992-3 0  9994,2 53711  53.2148 219.1457 0001079 108.6428 182.5184 15.73242350  1830,6727.774,91.531,350.365,348.914,0.0
53711.0,STARLINK-4627,PAYLOAD,2022-09-16 14:00:01,15.73144347,0.0001284999999999,53.214,216.2593,106.0257,250.7206,-0.00010416,-0.00015176,0.0,0 STARLINK-4627,1 53711U 22107M   22259.58334491 -.00015176  00000-0 -10416-3 0  9993,2 53711  53.2140 216.2593 0001285 106.0257 250.7206 15.73144347  1304,6728.054,91.536,350.783,349.05400000000014,0.0
53711.0,STARLINK-4627,PAYLOAD,2022-09-16 16:00:00,15.73106377,0.0001305,53.214,215.8465,109.3995,359.5729,0.00048385,0.0006756,0.0,0 STARLINK-4627,1 53711U 22107M   22259.66667824  .00067560  00000-0  48385-3 0  9999,2 53711  53.2140 215.8465 0001305 109.3995 359.5729 15.73106377  1944,6728.1619999999975,91.539,350.905,349.149,0.0
53711.0,STARLINK-4627,PAYLOAD,2022-09-16 22:00:00,15.73153439,0.0001426,53.2142,214.6093,111.3728,334.2255,0.00042,0.00058619,0.0,0 STARLINK-4627,1 53711U 22107M   22259.91667824  .00058619  00000-0  42000-3 0  9990,2 53711  53.2142 214.6093 0001426 111.3728 334.2255 15.73153439  1306,6728.028,91.536,350.852,348.934,0.0
53711.0,STARLINK-4627,PAYLOAD,2022-09-17 14:00:01,15.73249341,0.0001171,53.2142,211.3108,111.5554,151.8739,-0.00052093,-0.00073248,0.0,0 STARLINK-4627,1 53711U 22107M   22260.58334491 -.00073248  00000-0 -52093-3 0  9996,2 53711  53.2142 211.3108 0001171 111.5554 151.8739 15.73249341  1301,6727.755,91.53,350.407,348.832,0.0
53711.0,STARLINK-4627,PAYLOAD,2022-09-17 22:00:00,15.73231954,0.0001097999999999,53.2142,209.6609,117.9492,234.4273,7.1484e-05,9.437e-05,0.0,0 STARLINK-4627,1 53711U 22107M   22260.91667824  .00009437  00000-0  71484-4 0  9995,2 53711  53.2142 209.6609 0001098 117.9492 234.4273 15.73231954  1308,6727.804,91.531,350.408,348.93,0.0
53711.0,STARLINK-4627,PAYLOAD,2022-09-18 14:00:01,15.73182777,0.0001044999999999,53.2135,206.3618,119.6676,50.7067,8.659600000000001e-05,0.00011541,0.0,0 STARLINK-4627,1 53711U 22107M   22261.58335648  .00011541  00000-0  86596-4 0  9994,2 53711  53.2135 206.3618 0001045 119.6676  50.7067 15.73182777  1307,6727.944,91.534,350.51199999999994,349.106,0.0
53711.0,STARLINK-4627,PAYLOAD,2022-09-18 22:00:00,15.73212769,0.0001224,53.2137,204.7123,123.2562,135.9592,0.00036807,0.00051381,0.0,0 STARLINK-4627,1 53711U 22107M   22261.91667824  .00051381  00000-0  36807-3 0  9990,2 53711  53.2137 204.7123 0001224 123.2562 135.9592 15.73212769  1300,6727.859,91.532,350.547,348.9,0.0
53711.0,STARLINK-4627,PAYLOAD,2022-09-19 06:00:02,15.73262421,0.0001233,53.2138,203.0645,107.7226,240.5254,-0.00042031,-0.0005935,0.0,0 STARLINK-4627,1 53711U 22107M   22262.25002315 -.00059350  00000-0 -42031-3 0  9998,2 53711  53.2138 203.0645 0001233 107.7226 240.5254 15.73262421  2350,6727.717,91.53,350.412,348.75300000000016,0.0
53711.0,STARLINK-4627,PAYLOAD,2022-09-19 14:00:01,15.73169408,0.000149,53.2139,201.4131,114.3729,322.7961,0.00013531,0.00018387,0.0,0 STARLINK-4627,1 53711U 22107M   22262.58334491  .00018387  00000-0  13531-3 0  9993,2 53711  53.2139 201.4131 0001490 114.3729 322.7961 15.73169408  1303,6727.982,91.535,350.85,348.845,0.0
53711.0,STARLINK-4627,PAYLOAD,2022-09-19 22:00:00,15.73230922,0.0001621,53.214,199.7636,116.2044,49.8614,2.4442e-05,2.815e-05,0.0,0 STARLINK-4627,1 53711U 22107M   22262.91667824  .00002815  00000-0  24442-4 0  9992,2 53711  53.2140 199.7636 0001621 116.2044  49.8614 15.73230922  1303,6727.807,91.531,350.76300000000015,348.581,0.0
53711.0,STARLINK-4627,PAYLOAD,2022-09-20 14:00:01,15.73169433,0.0001224,53.2134,196.4642,129.392,214.597,0.00035118,0.00048888,0.0,0 STARLINK-4627,1 53711U 22107M   22263.58334491  .00048888  00000-0  35118-3 0  9998,2 53711  53.2134 196.4642 0001224 129.3920 214.5970 15.73169433  2567,6727.982,91.535,350.671,349.024,0.0
53711.0,STARLINK-4627,PAYLOAD,2022-09-20 22:00:01,15.73256461,0.0001164,53.2137,194.8149,134.0404,298.9143,-0.00047765,-0.00067281,0.0,0 STARLINK-4627,1 53711U 22107M   22263.91668981 -.00067281  00000-0 -47765-3 0  9990,2 53711  53.2137 194.8149 0001164 134.0404 298.9143 15.73256461  1304,6727.734,91.53,350.38199999999995,348.816,0.0
53711.0,STARLINK-4627,PAYLOAD,2022-09-21 06:00:00,15.73163349,9.3e-05,53.2139,193.167,124.8976,36.9581,0.00015573,0.00021257,0.0,0 STARLINK-4627,1 53711U 22107M   22264.25001157  .00021257  00000-0  15573-3 0  9997,2 53711  53.2139 193.1670 0000930 124.8976  36.9581 15.73163349  2666,6728.0,91.535,350.49,349.23900000000015,0.0
53711.0,STARLINK-4627,PAYLOAD,2022-09-21 22:00:00,15.73167256,0.0001367,53.2142,189.8664,124.8002,214.8422,0.0001833,0.00025146,0.0,0 STARLINK-4627,1 53711U 22107M   22264.91667824  .00025146  00000-0  18330-3 0  9994,2 53711  53.2142 189.8664 0001367 124.8002 214.8422 15.73167256  2774,6727.989000000001,91.535,350.773,348.934,0.0
53711.0,STARLINK-4627,PAYLOAD,2022-09-22 14:00:01,15.73217033,0.0001385,53.2138,186.567,128.6593,28.7796,4.133e-05,5.188e-05,0.0,0 STARLINK-4627,1 53711U 22107M   22265.58334491  .00005188  00000-0  41330-4 0  9990,2 53711  53.2138 186.5670 0001385 128.6593  28.7796 15.73217033  1300,6727.847,91.532,350.64300000000014,348.78,0.0
53711.0,STARLINK-4627,PAYLOAD,2022-09-22 22:00:00,15.73207379,0.0001499,53.2141,184.9181,125.2388,121.1578,9.6902e-05,0.00013005,0.0,0 STARLINK-4627,1 53711U 22107M   22265.91667824  .00013005  00000-0  96902-4 0  9998,2 53711  53.2141 184.9181 0001499 125.2388 121.1578 15.73207379  1302,6727.874,91.533,350.74800000000016,348.731,0.0
53711.0,STARLINK-4627,PAYLOAD,2022-09-23 06:00:00,15.73226406,0.000128,53.2142,183.2699,120.21,215.126,0.00017492,0.00024027,0.0,0 STARLINK-4627,1 53711U 22107M   22266.25001157  .00024027  00000-0  17492-3 0  9999,2 53711  53.2142 183.2699 0001280 120.2100 215.1260 15.73226406  2972,6727.82,91.532,350.546,348.824,0.0
